{
  "type": "FeatureCollection",
  "features": [
    {
      "type": "Feature",
      "properties": {
        "norad_id": 37562,
        "name": "IRIDIUM 33 DEB",
        "group": "iridium-33-debris",
        "lat": 42.638588798984564,
        "lon": 43.00288834432931,
        "alt_km": 685.7752614614128,
        "timestamp": "2025-12-21T18:54:58.881549+00:00",
        "meta_object_name": "IRIDIUM 33 DEB",
        "meta_object_id": "1997-051XX",
        "meta_epoch": "2025-12-20T09:49:22.908288",
        "meta_mean_motion": 14.56536223,
        "meta_eccentricity": 0.00265257,
        "meta_inclination": 86.3738,
        "meta_ra_of_asc_node": 40.2566,
        "meta_arg_of_pericenter": 83.7346,
        "meta_mean_anomaly": 293.6722,
        "meta_ephemeris_type": 0,
        "meta_classification_type": "U",
        "meta_norad_cat_id": 37562,
        "meta_element_set_no": 999,
        "meta_rev_at_epoch": 86440,
        "meta_bstar": 0.00062409577,
        "meta_mean_motion_dot": 2.811e-05,
        "meta_mean_motion_ddot": 0,
        "tle_line1": "1 37562U 97051XX  25354.40929292  .00002811  00000+0  62410-3 0  9998",
        "tle_line2": "2 37562  86.3738  40.2566 0026525  83.7346 293.6722 14.56536223864404"
      },
      "geometry": {
        "type": "Point",
        "coordinates": [
          43.00288834432931,
          42.638588798984564
        ]
      }
    },
    {
      "type": "Feature",
      "properties": {
        "norad_id": 37565,
        "name": "IRIDIUM 33 DEB",
        "group": "iridium-33-debris",
        "lat": 21.52059560582754,
        "lon": 7.08023999712511,
        "alt_km": 711.9231753715849,
        "timestamp": "2025-12-21T18:54:58.881579+00:00",
        "meta_object_name": "IRIDIUM 33 DEB",
        "meta_object_id": "1997-051YA",
        "meta_epoch": "2025-12-20T18:00:01.779840",
        "meta_mean_motion": 14.51546938,
        "meta_eccentricity": 0.00148844,
        "meta_inclination": 86.3492,
        "meta_ra_of_asc_node": 6.0897,
        "meta_arg_of_pericenter": 60.9074,
        "meta_mean_anomaly": 299.362,
        "meta_ephemeris_type": 0,
        "meta_classification_type": "U",
        "meta_norad_cat_id": 37565,
        "meta_element_set_no": 999,
        "meta_rev_at_epoch": 65953,
        "meta_bstar": 0.00034536984,
        "meta_mean_motion_dot": 1.404e-05,
        "meta_mean_motion_ddot": 0,
        "tle_line1": "1 37565U 97051YA  25354.75002060  .00001404  00000+0  34537-3 0  9990",
        "tle_line2": "2 37565  86.3492   6.0897 0014884  60.9074 299.3620 14.51546938659536"
      },
      "geometry": {
        "type": "Point",
        "coordinates": [
          7.08023999712511,
          21.52059560582754
        ]
      }
    },
    {
      "type": "Feature",
      "properties": {
        "norad_id": 38017,
        "name": "IRIDIUM 33 DEB",
        "group": "iridium-33-debris",
        "lat": 32.066327781084865,
        "lon": 164.5908766700264,
        "alt_km": 676.2840122207572,
        "timestamp": "2025-12-21T18:54:58.881596+00:00",
        "meta_object_name": "IRIDIUM 33 DEB",
        "meta_object_id": "1997-051YD",
        "meta_epoch": "2025-12-18T04:36:04.603680",
        "meta_mean_motion": 14.49190685,
        "meta_eccentricity": 0.00919647,
        "meta_inclination": 86.3412,
        "meta_ra_of_asc_node": 163.8576,
        "meta_arg_of_pericenter": 84.7873,
        "meta_mean_anomaly": 276.3818,
        "meta_ephemeris_type": 0,
        "meta_classification_type": "U",
        "meta_norad_cat_id": 38017,
        "meta_element_set_no": 999,
        "meta_rev_at_epoch": 61481,
        "meta_bstar": 0.0038247823,
        "meta_mean_motion_dot": 0.00015406,
        "meta_mean_motion_ddot": 0,
        "tle_line1": "1 38017U 97051YD  25352.19171995  .00015406  00000+0  38248-2 0  9992",
        "tle_line2": "2 38017  86.3412 163.8576 0091964  84.7873 276.3818 14.49190685614819"
      },
      "geometry": {
        "type": "Point",
        "coordinates": [
          164.5908766700264,
          32.066327781084865
        ]
      }
    },
    {
      "type": "Feature",
      "properties": {
        "norad_id": 38022,
        "name": "IRIDIUM 33 DEB",
        "group": "iridium-33-debris",
        "lat": -81.40083449117381,
        "lon": -13.087594129273503,
        "alt_km": 769.120780568247,
        "timestamp": "2025-12-21T18:54:58.881607+00:00",
        "meta_object_name": "IRIDIUM 33 DEB",
        "meta_object_id": "1997-051YJ",
        "meta_epoch": "2025-12-19T18:58:32.469312",
        "meta_mean_motion": 14.41290935,
        "meta_eccentricity": 0.00458382,
        "meta_inclination": 86.2683,
        "meta_ra_of_asc_node": 13.3554,
        "meta_arg_of_pericenter": 27.8099,
        "meta_mean_anomaly": 332.5536,
        "meta_ephemeris_type": 0,
        "meta_classification_type": "U",
        "meta_norad_cat_id": 38022,
        "meta_element_set_no": 999,
        "meta_rev_at_epoch": 69295,
        "meta_bstar": 0.00071023159,
        "meta_mean_motion_dot": 2.344e-05,
        "meta_mean_motion_ddot": 0,
        "tle_line1": "1 38022U 97051YJ  25353.79065358  .00002344  00000+0  71023-3 0  9996",
        "tle_line2": "2 38022  86.2683  13.3554 0045838  27.8099 332.5536 14.41290935692950"
      },
      "geometry": {
        "type": "Point",
        "coordinates": [
          -13.087594129273503,
          -81.40083449117381
        ]
      }
    },
    {
      "type": "Feature",
      "properties": {
        "norad_id": 38028,
        "name": "IRIDIUM 33 DEB",
        "group": "iridium-33-debris",
        "lat": -41.768662205423404,
        "lon": 179.62619204714858,
        "alt_km": 758.5778240885584,
        "timestamp": "2025-12-21T18:54:58.881618+00:00",
        "meta_object_name": "IRIDIUM 33 DEB",
        "meta_object_id": "1997-051YQ",
        "meta_epoch": "2025-12-19T17:44:22.316352",
        "meta_mean_motion": 14.46188799,
        "meta_eccentricity": 0.0030512,
        "meta_inclination": 86.3252,
        "meta_ra_of_asc_node": 357.2262,
        "meta_arg_of_pericenter": 99.065,
        "meta_mean_anomaly": 261.4007,
        "meta_ephemeris_type": 0,
        "meta_classification_type": "U",
        "meta_norad_cat_id": 38028,
        "meta_element_set_no": 999,
        "meta_rev_at_epoch": 65596,
        "meta_bstar": 0.00016660929,
        "meta_mean_motion_dot": 6.2e-06,
        "meta_mean_motion_ddot": 0,
        "tle_line1": "1 38028U 97051YQ  25353.73914718  .00000620  00000+0  16661-3 0  9991",
        "tle_line2": "2 38028  86.3252 357.2262 0030512  99.0650 261.4007 14.46188799655964"
      },
      "geometry": {
        "type": "Point",
        "coordinates": [
          179.62619204714858,
          -41.768662205423404
        ]
      }
    },
    {
      "type": "Feature",
      "properties": {
        "norad_id": 38228,
        "name": "IRIDIUM 33 DEB",
        "group": "iridium-33-debris",
        "lat": -80.4505271762383,
        "lon": -112.71402313319714,
        "alt_km": 816.796866063557,
        "timestamp": "2025-12-21T18:54:58.881628+00:00",
        "meta_object_name": "IRIDIUM 33 DEB",
        "meta_object_id": "1997-051ZC",
        "meta_epoch": "2025-12-20T22:20:09.818016",
        "meta_mean_motion": 14.2727844,
        "meta_eccentricity": 0.0065198,
        "meta_inclination": 86.2935,
        "meta_ra_of_asc_node": 44.9869,
        "meta_arg_of_pericenter": 163.0896,
        "meta_mean_anomaly": 14.0405,
        "meta_ephemeris_type": 0,
        "meta_classification_type": "U",
        "meta_norad_cat_id": 38228,
        "meta_element_set_no": 999,
        "meta_rev_at_epoch": 84898,
        "meta_bstar": 0.00020665,
        "meta_mean_motion_dot": 5.36e-06,
        "meta_mean_motion_ddot": 0,
        "tle_line1": "1 38228U 97051ZC  25354.93066919  .00000536  00000+0  20665-3 0  9992",
        "tle_line2": "2 38228  86.2935  44.9869 0065198 163.0896  14.0405 14.27278440848980"
      },
      "geometry": {
        "type": "Point",
        "coordinates": [
          -112.71402313319714,
          -80.4505271762383
        ]
      }
    },
    {
      "type": "Feature",
      "properties": {
        "norad_id": 38241,
        "name": "IRIDIUM 33 DEB",
        "group": "iridium-33-debris",
        "lat": 0.28035220098966124,
        "lon": -13.375024444550167,
        "alt_km": 710.2086741538506,
        "timestamp": "2025-12-21T18:54:58.881638+00:00",
        "meta_object_name": "IRIDIUM 33 DEB",
        "meta_object_id": "1997-051ZR",
        "meta_epoch": "2025-12-18T18:17:11.654016",
        "meta_mean_motion": 14.54903336,
        "meta_eccentricity": 0.00053297,
        "meta_inclination": 86.3221,
        "meta_ra_of_asc_node": 347.9418,
        "meta_arg_of_pericenter": 59.8994,
        "meta_mean_anomaly": 300.274,
        "meta_ephemeris_type": 0,
        "meta_classification_type": "U",
        "meta_norad_cat_id": 38241,
        "meta_element_set_no": 999,
        "meta_rev_at_epoch": 60288,
        "meta_bstar": 0.0005578999,
        "meta_mean_motion_dot": 2.417e-05,
        "meta_mean_motion_ddot": 0,
        "tle_line1": "1 38241U 97051ZR  25352.76194044  .00002417  00000+0  55790-3 0  9994",
        "tle_line2": "2 38241  86.3221 347.9418 0005329  59.8994 300.2740 14.54903336602889"
      },
      "geometry": {
        "type": "Point",
        "coordinates": [
          -13.375024444550167,
          0.28035220098966124
        ]
      }
    }
  ]
}